{
    "type": "FeatureCollection",
    "name": "thib-commercial-zones",
    "crs": {
        "type": "name",
        "properties": {
            "name": "urn:ogc:def:crs:OGC:1.3:CRS84"
        }
    },
    "features": [
        {
            "type": "Feature",
            "properties": {
                "fid": 1
            },
            "geometry": {
                "type": "Polygon",
                "coordinates": [
                    [
                        [
                            -90.822431345126262,
                            29.798208923678331
                        ],
                        [
                            -90.82156740164011,
                            29.798756585402344
                        ],
                        [
                            -90.820648312825071,
                            29.799139415118525
                        ],
                        [
                            -90.819551533505759,
                            29.799447804657898
                        ],
                        [
                            -90.818399801136408,
                            29.799597599870737
                        ],
                        [
                            -90.817859482093709,
                            29.799576287500965
                        ],
                        [
                            -90.816999883616774,
                            29.799526558620531
                        ],
                        [
                            -90.815739139183862,
                            29.799292122136929
                        ],
                        [
                            -90.815067833706635,
                            29.799093205901858
                        ],
                        [
                            -90.814975017844901,
                            29.799544147649257
                        ],
                        [
                            -90.81507483648781,
                            29.799775132888147
                        ],
                        [
                            -90.814625652594813,
                            29.80106719673303
                        ],
                        [
                            -90.81514138224972,
                            29.801262087596459
                        ],
                        [
                            -90.814213002935986,
                            29.804640580931689
                        ],
                        [
                            -90.815229160490148,
                            29.80492187140576
                        ],
                        [
                            -90.815076487664214,
                            29.805563061349424
                        ],
                        [
                            -90.815998631532921,
                            29.805822715611885
                        ],
                        [
                            -90.816418227724668,
                            29.805880391073881
                        ],
                        [
                            -90.812644545953034,
                            29.822408519826933
                        ],
                        [
                            -90.814067999045065,
                            29.822524296008311
                        ],
                        [
                            -90.81678145650173,
                            29.823064583081578
                        ],
                        [
                            -90.817494340358294,
                            29.820293108896724
                        ],
                        [
                            -90.816221713647863,
                            29.819998677151478
                        ],
                        [
                            -90.81628509433061,
                            29.81969672698462
                        ],
                        [
                            -90.814350472807632,
                            29.819357313393471
                        ],
                        [
                            -90.814784556861269,
                            29.817753219869886
                        ],
                        [
                            -90.816708460259491,
                            29.818125185877747
                        ],
                        [
                            -90.817947659199902,
                            29.813490748026975
                        ],
                        [
                            -90.818931159342284,
                            29.813656673621598
                        ],
                        [
                            -90.82039751936577,
                            29.807239312903341
                        ],
                        [
                            -90.821454116339666,
                            29.803300014399127
                        ],
                        [
                            -90.82229332733327,
                            29.80337897736279
                        ],
                        [
                            -90.822697766366318,
                            29.80172951584019
                        ],
                        [
                            -90.823041539544391,
                            29.801703194425222
                        ],
                        [
                            -90.823132538326831,
                            29.801352241563752
                        ],
                        [
                            -90.82204055293758,
                            29.801369789236073
                        ],
                        [
                            -90.822283216357434,
                            29.799696166136545
                        ],
                        [
                            -90.821919221227688,
                            29.799608426276389
                        ],
                        [
                            -90.821808000493562,
                            29.799283788124743
                        ],
                        [
                            -90.822455102946492,
                            29.798932826775825
                        ],
                        [
                            -90.822431345126262,
                            29.798208923678331
                        ]
                    ]
                ]
            }
        },
        {
            "type": "Feature",
            "properties": {
                "fid": 2
            },
            "geometry": {
                "type": "Polygon",
                "coordinates": [
                    [
                        [
                            -90.810844535536049,
                            29.827536729927367
                        ],
                        [
                            -90.812812939112163,
                            29.819260890126397
                        ],
                        [
                            -90.809153727336053,
                            29.818494574002912
                        ],
                        [
                            -90.808219997434534,
                            29.821384649825408
                        ],
                        [
                            -90.811298782515124,
                            29.821997685470031
                        ],
                        [
                            -90.810945479309197,
                            29.82333321439225
                        ],
                        [
                            -90.810541704216618,
                            29.823267533059202
                        ],
                        [
                            -90.810339816670364,
                            29.824165174208186
                        ],
                        [
                            -90.807513391022567,
                            29.823683514106172
                        ],
                        [
                            -90.806680604894225,
                            29.826332615942043
                        ],
                        [
                            -90.806832020553912,
                            29.82659533295805
                        ],
                        [
                            -90.80718532375991,
                            29.826814263277161
                        ],
                        [
                            -90.810844535536049,
                            29.827536729927367
                        ]
                    ]
                ]
            }
        },
        {
            "type": "Feature",
            "properties": {
                "fid": 3
            },
            "geometry": {
                "type": "Polygon",
                "coordinates": [
                    [
                        [
                            -90.822197862813184,
                            29.800694913738354
                        ],
                        [
                            -90.822708060973156,
                            29.798695177189728
                        ],
                        [
                            -90.823489195971277,
                            29.798078254890928
                        ],
                        [
                            -90.823901705464692,
                            29.797811682350297
                        ],
                        [
                            -90.824867153215152,
                            29.797583191035883
                        ],
                        [
                            -90.824753054844635,
                            29.798055405843858
                        ],
                        [
                            -90.824244000576201,
                            29.798253430745216
                        ],
                        [
                            -90.823638401532705,
                            29.800721092795303
                        ],
                        [
                            -90.822197862813184,
                            29.800694913738354
                        ]
                    ]
                ]
            }
        },
        {
            "type": "Feature",
            "properties": {
                "fid": 4
            },
            "geometry": {
                "type": "Polygon",
                "coordinates": [
                    [
                        [
                            -90.826206996675182,
                            29.797363636675893
                        ],
                        [
                            -90.82621006524225,
                            29.797126641265006
                        ],
                        [
                            -90.825197438120654,
                            29.797166584351118
                        ],
                        [
                            -90.824740221632439,
                            29.797230493255721
                        ],
                        [
                            -90.824433364928922,
                            29.797318367932924
                        ],
                        [
                            -90.823687829849632,
                            29.797586841275027
                        ],
                        [
                            -90.823086546204749,
                            29.797876721832822
                        ],
                        [
                            -90.822714919507604,
                            29.798097755193783
                        ],
                        [
                            -90.822587564291183,
                            29.798184719005235
                        ],
                        [
                            -90.822717007298053,
                            29.798293423663246
                        ],
                        [
                            -90.822942488664893,
                            29.798297047149809
                        ],
                        [
                            -90.823435207207211,
                            29.797981803327623
                        ],
                        [
                            -90.824230655362399,
                            29.797631229289895
                        ],
                        [
                            -90.824831939007268,
                            29.797479041728373
                        ],
                        [
                            -90.825491680784253,
                            29.797399324341846
                        ],
                        [
                            -90.826206996675182,
                            29.797363636675893
                        ]
                    ]
                ]
            }
        },
        {
            "type": "Feature",
            "properties": {
                "fid": 5
            },
            "geometry": {
                "type": "Polygon",
                "coordinates": [
                    [
                        [
                            -90.81440616523922,
                            29.801209146335655
                        ],
                        [
                            -90.814963176680081,
                            29.799665101475707
                        ],
                        [
                            -90.813477812837789,
                            29.799222023332973
                        ],
                        [
                            -90.812193592015774,
                            29.799060903521834
                        ],
                        [
                            -90.811682998194968,
                            29.800457266598048
                        ],
                        [
                            -90.81440616523922,
                            29.801209146335655
                        ]
                    ]
                ]
            }
        },
        {
            "type": "Feature",
            "properties": {
                "fid": 6
            },
            "geometry": {
                "type": "Polygon",
                "coordinates": [
                    [
                        [
                            -90.838708632948425,
                            29.799322226502024
                        ],
                        [
                            -90.839046343295649,
                            29.798772746197042
                        ],
                        [
                            -90.838548220533497,
                            29.798604238298868
                        ],
                        [
                            -90.839105442606396,
                            29.797160919893042
                        ],
                        [
                            -90.837197379144655,
                            29.79658212138407
                        ],
                        [
                            -90.836986310177636,
                            29.797270817965902
                        ],
                        [
                            -90.83611670603355,
                            29.797043695148961
                        ],
                        [
                            -90.836082934998842,
                            29.797131613719909
                        ],
                        [
                            -90.83548349913255,
                            29.79698508272541
                        ],
                        [
                            -90.835652354306148,
                            29.796420936393123
                        ],
                        [
                            -90.833119526702049,
                            29.795871440154425
                        ],
                        [
                            -90.833305267393001,
                            29.795016051671258
                        ],
                        [
                            -90.831101707377428,
                            29.794679022937441
                        ],
                        [
                            -90.831257898413,
                            29.794036100846061
                        ],
                        [
                            -90.830101240473795,
                            29.793896892099905
                        ],
                        [
                            -90.829932385300182,
                            29.794541646769201
                        ],
                        [
                            -90.827863909423499,
                            29.794307191006492
                        ],
                        [
                            -90.827720382525911,
                            29.795230357395294
                        ],
                        [
                            -90.827239145281126,
                            29.795142437153785
                        ],
                        [
                            -90.827044961831476,
                            29.796102228942225
                        ],
                        [
                            -90.825499936992998,
                            29.795889756744327
                        ],
                        [
                            -90.825474608716945,
                            29.796776275687488
                        ],
                        [
                            -90.826943648727323,
                            29.79671766310728
                        ],
                        [
                            -90.82826071908147,
                            29.796776275687488
                        ],
                        [
                            -90.829016345983348,
                            29.796834888233345
                        ],
                        [
                            -90.830054805301032,
                            29.797010725664936
                        ],
                        [
                            -90.831654708070985,
                            29.797252501628812
                        ],
                        [
                            -90.832541197732411,
                            29.797384379181032
                        ],
                        [
                            -90.834200199813125,
                            29.797756199677092
                        ],
                        [
                            -90.836188469482323,
                            29.798399097865861
                        ],
                        [
                            -90.838708632948425,
                            29.799322226502024
                        ]
                    ]
                ]
            }
        },
        {
            "type": "Feature",
            "properties": {
                "fid": 7
            },
            "geometry": {
                "type": "Polygon",
                "coordinates": [
                    [
                        [
                            -90.823899251010857,
                            29.79705664456738
                        ],
                        [
                            -90.824213850437076,
                            29.795865336187607
                        ],
                        [
                            -90.822621786674191,
                            29.795815698030644
                        ],
                        [
                            -90.822516920198765,
                            29.797743295036831
                        ],
                        [
                            -90.823899251010857,
                            29.79705664456738
                        ]
                    ]
                ]
            }
        },
        {
            "type": "Feature",
            "properties": {
                "fid": 8
            },
            "geometry": {
                "type": "Polygon",
                "coordinates": [
                    [
                        [
                            -90.82424449043755,
                            29.79576175720533
                        ],
                        [
                            -90.824375970853467,
                            29.794351809679895
                        ],
                        [
                            -90.822732465654354,
                            29.794262159165488
                        ],
                        [
                            -90.822638551071549,
                            29.795745457347433
                        ],
                        [
                            -90.82424449043755,
                            29.79576175720533
                        ]
                    ]
                ]
            }
        },
        {
            "type": "Feature",
            "properties": {
                "fid": 9
            },
            "geometry": {
                "type": "Polygon",
                "coordinates": [
                    [
                        [
                            -90.826244871051315,
                            29.794906011076982
                        ],
                        [
                            -90.826310611259302,
                            29.794465910218442
                        ],
                        [
                            -90.824451102519717,
                            29.794359959722669
                        ],
                        [
                            -90.824413536686592,
                            29.794612610719692
                        ],
                        [
                            -90.82505215584969,
                            29.794620760741228
                        ],
                        [
                            -90.82505215584969,
                            29.794938611063579
                        ],
                        [
                            -90.826244871051315,
                            29.794906011076982
                        ]
                    ]
                ]
            }
        },
        {
            "type": "Feature",
            "properties": {
                "fid": 10
            },
            "geometry": {
                "type": "Polygon",
                "coordinates": [
                    [
                        [
                            -90.822502374926472,
                            29.796324100676276
                        ],
                        [
                            -90.822643246800666,
                            29.794278459264969
                        ],
                        [
                            -90.82210793367868,
                            29.794278459264969
                        ],
                        [
                            -90.821967061804457,
                            29.796348550320705
                        ],
                        [
                            -90.822502374926472,
                            29.796324100676276
                        ]
                    ]
                ]
            }
        },
        {
            "type": "Feature",
            "properties": {
                "fid": 11
            },
            "geometry": {
                "type": "Polygon",
                "coordinates": [
                    [
                        [
                            -90.826324136509797,
                            29.7943488740741
                        ],
                        [
                            -90.826433778208994,
                            29.793524249020315
                        ],
                        [
                            -90.822808292689757,
                            29.793397383024278
                        ],
                        [
                            -90.822742507670256,
                            29.794209322619615
                        ],
                        [
                            -90.826324136509797,
                            29.7943488740741
                        ]
                    ]
                ]
            }
        },
        {
            "type": "Feature",
            "properties": {
                "fid": 12
            },
            "geometry": {
                "type": "Polygon",
                "coordinates": [
                    [
                        [
                            -90.822441958774817,
                            29.797824477384495
                        ],
                        [
                            -90.82250220370932,
                            29.796378064395324
                        ],
                        [
                            -90.819329303826478,
                            29.79645648491276
                        ],
                        [
                            -90.819309222181644,
                            29.795785551832704
                        ],
                        [
                            -90.818666609547165,
                            29.797101273503603
                        ],
                        [
                            -90.818465793098881,
                            29.79762407201336
                        ],
                        [
                            -90.818315180762653,
                            29.798321132443746
                        ],
                        [
                            -90.818224813360942,
                            29.798896203642826
                        ],
                        [
                            -90.818847344350615,
                            29.799026901181641
                        ],
                        [
                            -90.819891589881649,
                            29.798887490467504
                        ],
                        [
                            -90.820825386366167,
                            29.798652234446916
                        ],
                        [
                            -90.821739101205836,
                            29.798242713387772
                        ],
                        [
                            -90.822441958774817,
                            29.797824477384495
                        ]
                    ]
                ]
            }
        },
        {
            "type": "Feature",
            "properties": {
                "fid": 13
            },
            "geometry": {
                "type": "Polygon",
                "coordinates": [
                    [
                        [
                            -90.817893714760856,
                            29.79906316335914
                        ],
                        [
                            -90.818015984638336,
                            29.798461913660418
                        ],
                        [
                            -90.817068393087993,
                            29.79830275872359
                        ],
                        [
                            -90.816956312367012,
                            29.798833274195097
                        ],
                        [
                            -90.816457043700709,
                            29.798709487503356
                        ],
                        [
                            -90.816507989483,
                            29.798364652340215
                        ],
                        [
                            -90.815855883469865,
                            29.798223181160246
                        ],
                        [
                            -90.816008720816697,
                            29.797126772732884
                        ],
                        [
                            -90.815468695524586,
                            29.797038352174891
                        ],
                        [
                            -90.815427938898765,
                            29.797321297685428
                        ],
                        [
                            -90.814836967824363,
                            29.797224035256423
                        ],
                        [
                            -90.814806400354982,
                            29.797480454183482
                        ],
                        [
                            -90.815173209987378,
                            29.797551190323574
                        ],
                        [
                            -90.814918481076006,
                            29.798594542581029
                        ],
                        [
                            -90.815825316000499,
                            29.79890400937877
                        ],
                        [
                            -90.816436665387798,
                            29.799045479596035
                        ],
                        [
                            -90.816997068992833,
                            29.799107372753195
                        ],
                        [
                            -90.817852958135049,
                            29.799133898380269
                        ],
                        [
                            -90.817893714760856,
                            29.79906316335914
                        ]
                    ]
                ]
            }
        },
        {
            "type": "Feature",
            "properties": {
                "fid": 14
            },
            "geometry": {
                "type": "Polygon",
                "coordinates": [
                    [
                        [
                            -90.810447629721907,
                            29.798719396961456
                        ],
                        [
                            -90.810566942838989,
                            29.798234406088724
                        ],
                        [
                            -90.808036248830078,
                            29.797858400311089
                        ],
                        [
                            -90.807923215350741,
                            29.798365190375797
                        ],
                        [
                            -90.810158766385925,
                            29.798670353047466
                        ],
                        [
                            -90.810447629721907,
                            29.798719396961456
                        ]
                    ]
                ]
            }
        },
        {
            "type": "Feature",
            "properties": {
                "fid": 15
            },
            "geometry": {
                "type": "Polygon",
                "coordinates": [
                    [
                        [
                            -90.814954451943834,
                            29.799478615743638
                        ],
                        [
                            -90.815064934697304,
                            29.799055173042277
                        ],
                        [
                            -90.813628658902303,
                            29.798671676219012
                        ],
                        [
                            -90.812358107237529,
                            29.798455958609928
                        ],
                        [
                            -90.811603141755555,
                            29.798280188362355
                        ],
                        [
                            -90.810590383182159,
                            29.798232250968521
                        ],
                        [
                            -90.81046148663647,
                            29.798719613402319
                        ],
                        [
                            -90.81163996934005,
                            29.798839456260072
                        ],
                        [
                            -90.812744796874654,
                            29.798919351418821
                        ],
                        [
                            -90.8134169002915,
                            29.799023215029809
                        ],
                        [
                            -90.814954451943834,
                            29.799478615743638
                        ]
                    ]
                ]
            }
        },
        {
            "type": "Feature",
            "properties": {
                "fid": 16
            },
            "geometry": {
                "type": "Polygon",
                "coordinates": [
                    [
                        [
                            -90.824770233877544,
                            29.787592798268047
                        ],
                        [
                            -90.824646711657991,
                            29.787056788805177
                        ],
                        [
                            -90.823729118027089,
                            29.785326224375005
                        ],
                        [
                            -90.824523189438437,
                            29.785096501183624
                        ],
                        [
                            -90.823587949776183,
                            29.783274011851326
                        ],
                        [
                            -90.822705648208043,
                            29.783488424083082
                        ],
                        [
                            -90.819635238750848,
                            29.777369837491509
                        ],
                        [
                            -90.817905927677259,
                            29.77772210668785
                        ],
                        [
                            -90.817570653081347,
                            29.777124779928378
                        ],
                        [
                            -90.817182440391363,
                            29.777155412156571
                        ],
                        [
                            -90.817305962610888,
                            29.778487905013218
                        ],
                        [
                            -90.817958865771331,
                            29.778503220919987
                        ],
                        [
                            -90.81822355624179,
                            29.779284329058761
                        ],
                        [
                            -90.818011803865431,
                            29.780096062432676
                        ],
                        [
                            -90.819088211778592,
                            29.780172640713158
                        ],
                        [
                            -90.81836472449271,
                            29.784399670944893
                        ],
                        [
                            -90.819582300656734,
                            29.784548992118676
                        ],
                        [
                            -90.821170443479446,
                            29.785176904360572
                        ],
                        [
                            -90.821293965698985,
                            29.785636349847127
                        ],
                        [
                            -90.821911576796694,
                            29.785896701353472
                        ],
                        [
                            -90.821664532357588,
                            29.786493975779983
                        ],
                        [
                            -90.819264672092203,
                            29.785575090570767
                        ],
                        [
                            -90.818188264179057,
                            29.78542194221583
                        ],
                        [
                            -90.818117680053618,
                            29.785835442236433
                        ],
                        [
                            -90.819435342022942,
                            29.786253294133672
                        ],
                        [
                            -90.820750000373792,
                            29.786748960993243
                        ],
                        [
                            -90.821461208989788,
                            29.787001469581792
                        ],
                        [
                            -90.822161641717699,
                            29.787310090324969
                        ],
                        [
                            -90.822043106948357,
                            29.787600005913884
                        ],
                        [
                            -90.822183193493927,
                            29.787665470608083
                        ],
                        [
                            -90.821683565448367,
                            29.788821572040028
                        ],
                        [
                            -90.822211766341425,
                            29.788988264880484
                        ],
                        [
                            -90.822874418370859,
                            29.789196630540633
                        ],
                        [
                            -90.823162527948895,
                            29.787954764794542
                        ],
                        [
                            -90.823296979085299,
                            29.78754636262537
                        ],
                        [
                            -90.824770233877544,
                            29.787592798268047
                        ]
                    ]
                ]
            }
        },
        {
            "type": "Feature",
            "properties": {
                "fid": 17
            },
            "geometry": {
                "type": "Polygon",
                "coordinates": [
                    [
                        [
                            -90.809979079019627,
                            29.783364978755195
                        ],
                        [
                            -90.811005758191371,
                            29.780360772294149
                        ],
                        [
                            -90.80949507312441,
                            29.780118904293779
                        ],
                        [
                            -90.809451072588459,
                            29.779622436567774
                        ],
                        [
                            -90.807507715584862,
                            29.777588802689124
                        ],
                        [
                            -90.806847707545899,
                            29.776506727139804
                        ],
                        [
                            -90.806349034805336,
                            29.776366692978915
                        ],
                        [
                            -90.805146353489903,
                            29.77854356552222
                        ],
                        [
                            -90.806965042308363,
                            29.780274845571459
                        ],
                        [
                            -90.808798397972154,
                            29.782069744015704
                        ],
                        [
                            -90.809979079019627,
                            29.783364978755195
                        ]
                    ]
                ]
            }
        },
        {
            "type": "Feature",
            "properties": {
                "fid": 18
            },
            "geometry": {
                "type": "Polygon",
                "coordinates": [
                    [
                        [
                            -90.808549061601894,
                            29.782260688765035
                        ],
                        [
                            -90.807639717192629,
                            29.781369610152513
                        ],
                        [
                            -90.806627704866244,
                            29.783049923198703
                        ],
                        [
                            -90.805557025158592,
                            29.782604388396084
                        ],
                        [
                            -90.805102352953966,
                            29.783419079104537
                        ],
                        [
                            -90.807236378946612,
                            29.784345145256914
                        ],
                        [
                            -90.808549061601894,
                            29.782260688765035
                        ]
                    ]
                ]
            }
        },
        {
            "type": "Feature",
            "properties": {
                "fid": 19
            },
            "geometry": {
                "type": "Polygon",
                "coordinates": [
                    [
                        [
                            -90.818023664804869,
                            29.79843270898677
                        ],
                        [
                            -90.818190796692519,
                            29.797664881362664
                        ],
                        [
                            -90.818289109567587,
                            29.797383343090758
                        ],
                        [
                            -90.818751180080454,
                            29.796333966188946
                        ],
                        [
                            -90.819370551193515,
                            29.79498596995515
                        ],
                        [
                            -90.818348097292628,
                            29.794619107077043
                        ],
                        [
                            -90.818121977679951,
                            29.795045691691737
                        ],
                        [
                            -90.817836870342219,
                            29.797298028306503
                        ],
                        [
                            -90.817237161804201,
                            29.797212713449497
                        ],
                        [
                            -90.817129017641619,
                            29.798048795911292
                        ],
                        [
                            -90.815939431853124,
                            29.797903761699381
                        ],
                        [
                            -90.815900106703083,
                            29.798236486932236
                        ],
                        [
                            -90.816499815241087,
                            29.798364457881014
                        ],
                        [
                            -90.816499815241087,
                            29.798680118854822
                        ],
                        [
                            -90.816883235453901,
                            29.798782495173004
                        ],
                        [
                            -90.817020873479009,
                            29.798321800916266
                        ],
                        [
                            -90.817020873479009,
                            29.798321800916266
                        ],
                        [
                            -90.817020873479009,
                            29.798296206728697
                        ],
                        [
                            -90.818023664804869,
                            29.79843270898677
                        ]
                    ]
                ]
            }
        },
        {
            "type": "Feature",
            "properties": {
                "fid": 20
            },
            "geometry": {
                "type": "Polygon",
                "coordinates": [
                    [
                        [
                            -90.819398781767376,
                            29.794921759262074
                        ],
                        [
                            -90.822190542476818,
                            29.789054526927334
                        ],
                        [
                            -90.821063747491664,
                            29.788616659975386
                        ],
                        [
                            -90.818894246699401,
                            29.793184977571901
                        ],
                        [
                            -90.816926559934316,
                            29.792557393580825
                        ],
                        [
                            -90.816876106427515,
                            29.79277631867588
                        ],
                        [
                            -90.818372893795811,
                            29.793433091087433
                        ],
                        [
                            -90.818154261933046,
                            29.794542296928498
                        ],
                        [
                            -90.818154261933046,
                            29.794542296928498
                        ],
                        [
                            -90.818154261933046,
                            29.794542296928498
                        ],
                        [
                            -90.819398781767376,
                            29.794921759262074
                        ]
                    ]
                ]
            }
        },
        {
            "type": "Feature",
            "properties": {
                "fid": 21
            },
            "geometry": {
                "type": "Polygon",
                "coordinates": [
                    [
                        [
                            -90.829998021646787,
                            29.786364318462812
                        ],
                        [
                            -90.830270713097704,
                            29.785121822304912
                        ],
                        [
                            -90.829742373411548,
                            29.785062655436523
                        ],
                        [
                            -90.830287756313396,
                            29.78217822819596
                        ],
                        [
                            -90.829588984470405,
                            29.782089475270663
                        ],
                        [
                            -90.828770910117612,
                            29.786216403062237
                        ],
                        [
                            -90.829998021646787,
                            29.786364318462812
                        ]
                    ]
                ]
            }
        },
        {
            "type": "Feature",
            "properties": {
                "fid": 22
            },
            "geometry": {
                "type": "Polygon",
                "coordinates": [
                    [
                        [
                            -90.838566973702683,
                            29.784183829191271
                        ],
                        [
                            -90.838832377643214,
                            29.78322179640378
                        ],
                        [
                            -90.836724758115636,
                            29.782720451709491
                        ],
                        [
                            -90.836849654087644,
                            29.782178454621192
                        ],
                        [
                            -90.835897322301065,
                            29.782124254750968
                        ],
                        [
                            -90.835600694367585,
                            29.783357294538824
                        ],
                        [
                            -90.836303234210121,
                            29.783696039074119
                        ],
                        [
                            -90.838566973702683,
                            29.784183829191271
                        ]
                    ]
                ]
            }
        },
        {
            "type": "Feature",
            "properties": {
                "fid": 23
            },
            "geometry": {
                "type": "Polygon",
                "coordinates": [
                    [
                        [
                            -90.838254733772686,
                            29.785389744557218
                        ],
                        [
                            -90.838535749709692,
                            29.784387074371924
                        ],
                        [
                            -90.837692701898675,
                            29.784224478260406
                        ],
                        [
                            -90.837380461968635,
                            29.785240699624609
                        ],
                        [
                            -90.837380461968635,
                            29.785240699624609
                        ],
                        [
                            -90.838254733772686,
                            29.785389744557218
                        ]
                    ]
                ]
            }
        },
        {
            "type": "Feature",
            "properties": {
                "fid": 24
            },
            "geometry": {
                "type": "Polygon",
                "coordinates": [
                    [
                        [
                            -90.839475157712869,
                            29.776656283722367
                        ],
                        [
                            -90.839955197693129,
                            29.775088838945415
                        ],
                        [
                            -90.841475324297278,
                            29.775406298096698
                        ],
                        [
                            -90.840983854793691,
                            29.776497556253794
                        ],
                        [
                            -90.842355397594446,
                            29.776795170050967
                        ],
                        [
                            -90.842355397594446,
                            29.776795170050967
                        ],
                        [
                            -90.842195384267697,
                            29.777400315377495
                        ],
                        [
                            -90.843909812768615,
                            29.778174102434399
                        ],
                        [
                            -90.843658363255145,
                            29.778977644203074
                        ],
                        [
                            -90.841212445260481,
                            29.778174102434399
                        ],
                        [
                            -90.841281022400494,
                            29.777777289305988
                        ],
                        [
                            -90.840766693850227,
                            29.777628483977438
                        ],
                        [
                            -90.84089241860697,
                            29.777191987071301
                        ],
                        [
                            -90.839475157712869,
                            29.776656283722367
                        ]
                    ]
                ]
            }
        },
        {
            "type": "Feature",
            "properties": {
                "fid": 25
            },
            "geometry": {
                "type": "Polygon",
                "coordinates": [
                    [
                        [
                            -90.827734216013567,
                            29.798320684036597
                        ],
                        [
                            -90.827241750050661,
                            29.798253749344386
                        ],
                        [
                            -90.827265483350075,
                            29.798176516951585
                        ],
                        [
                            -90.826933217158242,
                            29.798130177487288
                        ],
                        [
                            -90.82712901687843,
                            29.797445380679441
                        ],
                        [
                            -90.827882549134912,
                            29.797486571597361
                        ],
                        [
                            -90.827734216013567,
                            29.798320684036597
                        ]
                    ]
                ]
            }
        },
        {
            "type": "Feature",
            "properties": {
                "fid": 26
            },
            "geometry": {
                "type": "Polygon",
                "coordinates": [
                    [
                        [
                            -90.827858815835469,
                            29.797352701052123
                        ],
                        [
                            -90.827918149084013,
                            29.797162192659712
                        ],
                        [
                            -90.826227151500603,
                            29.797126150490616
                        ],
                        [
                            -90.826227151500603,
                            29.797337254439231
                        ],
                        [
                            -90.827858815835469,
                            29.797352701052123
                        ]
                    ]
                ]
            }
        },
        {
            "type": "Feature",
            "properties": {
                "fid": 27
            },
            "geometry": {
                "type": "Polygon",
                "coordinates": [
                    [
                        [
                            -90.826873883909698,
                            29.797934521734732
                        ],
                        [
                            -90.827051883655344,
                            29.797414487479877
                        ],
                        [
                            -90.825046419854687,
                            29.797517464774668
                        ],
                        [
                            -90.824933686682456,
                            29.797986010127754
                        ],
                        [
                            -90.825366819396791,
                            29.7980735403351
                        ],
                        [
                            -90.825414285995606,
                            29.797872735628125
                        ],
                        [
                            -90.826256818124889,
                            29.797893331001227
                        ],
                        [
                            -90.826873883909698,
                            29.797934521734732
                        ]
                    ]
                ]
            }
        },
        {
            "type": "Feature",
            "properties": {
                "fid": 28
            },
            "geometry": {
                "type": "Polygon",
                "coordinates": [
                    [
                        [
                            -90.822693696360574,
                            29.792042507383798
                        ],
                        [
                            -90.822210145397875,
                            29.792026965079188
                        ],
                        [
                            -90.822201190750405,
                            29.791770516704567
                        ],
                        [
                            -90.821601229370742,
                            29.791708347302674
                        ],
                        [
                            -90.821583320075831,
                            29.791995880462714
                        ],
                        [
                            -90.821108723760574,
                            29.791972566994026
                        ],
                        [
                            -90.822442966231748,
                            29.789097197549239
                        ],
                        [
                            -90.823007109021603,
                            29.789213768187402
                        ],
                        [
                            -90.822756378892763,
                            29.791855999569133
                        ],
                        [
                            -90.822693696360574,
                            29.792042507383798
                        ]
                    ]
                ]
            }
        },
        {
            "type": "Feature",
            "properties": {
                "fid": 29
            },
            "geometry": {
                "type": "Polygon",
                "coordinates": [
                    [
                        [
                            -90.820007302123258,
                            29.79636317445436
                        ],
                        [
                            -90.819926710296144,
                            29.794599183634713
                        ],
                        [
                            -90.819353612858862,
                            29.795710423766806
                        ],
                        [
                            -90.819416295391051,
                            29.796417570152766
                        ],
                        [
                            -90.820007302123258,
                            29.79636317445436
                        ]
                    ]
                ]
            }
        },
        {
            "type": "Feature",
            "properties": {
                "fid": 30
            },
            "geometry": {
                "type": "Polygon",
                "coordinates": [
                    [
                        [
                            -90.820625172797847,
                            29.795189774332304
                        ],
                        [
                            -90.820589354208025,
                            29.794156238324025
                        ],
                        [
                            -90.820043120713109,
                            29.794195093254292
                        ],
                        [
                            -90.820016256770714,
                            29.795166461607685
                        ],
                        [
                            -90.820625172797847,
                            29.795189774332304
                        ]
                    ]
                ]
            }
        },
        {
            "type": "Feature",
            "properties": {
                "fid": 31
            },
            "geometry": {
                "type": "Polygon",
                "coordinates": [
                    [
                        [
                            -90.822653400447024,
                            29.794144581842001
                        ],
                        [
                            -90.822698173684316,
                            29.793227601001529
                        ],
                        [
                            -90.822223577369044,
                            29.793227601001529
                        ],
                        [
                            -90.822187758779236,
                            29.793693863495864
                        ],
                        [
                            -90.822089257657169,
                            29.793693863495864
                        ],
                        [
                            -90.822062393714816,
                            29.794175665791045
                        ],
                        [
                            -90.822653400447024,
                            29.794144581842001
                        ]
                    ]
                ]
            }
        },
        {
            "type": "Feature",
            "properties": {
                "fid": 32
            },
            "geometry": {
                "type": "Polygon",
                "coordinates": [
                    [
                        [
                            -90.82065651406397,
                            29.79409018490794
                        ],
                        [
                            -90.820683378006336,
                            29.793756031664302
                        ],
                        [
                            -90.820781879128347,
                            29.793149890374572
                        ],
                        [
                            -90.82055801294193,
                            29.79314211930857
                        ],
                        [
                            -90.820146099158848,
                            29.794082413914943
                        ],
                        [
                            -90.82065651406397,
                            29.79409018490794
                        ]
                    ]
                ]
            }
        },
        {
            "type": "Feature",
            "properties": {
                "fid": 33
            },
            "geometry": {
                "type": "Polygon",
                "coordinates": [
                    [
                        [
                            -90.821104246436832,
                            29.793033324321026
                        ],
                        [
                            -90.821023654609732,
                            29.792217358144367
                        ],
                        [
                            -90.820629650121589,
                            29.793048866469334
                        ],
                        [
                            -90.821104246436832,
                            29.793033324321026
                        ]
                    ]
                ]
            }
        },
        {
            "type": "Feature",
            "properties": {
                "fid": 34
            },
            "geometry": {
                "type": "Polygon",
                "coordinates": [
                    [
                        [
                            -90.822707128331785,
                            29.793126577174736
                        ],
                        [
                            -90.822778765511444,
                            29.792147417876809
                        ],
                        [
                            -90.822411624965653,
                            29.792147417876809
                        ],
                        [
                            -90.822384761023301,
                            29.792598143188084
                        ],
                        [
                            -90.82193702865041,
                            29.792629227617482
                        ],
                        [
                            -90.82192807400294,
                            29.792823505082474
                        ],
                        [
                            -90.822259395958895,
                            29.792854589441859
                        ],
                        [
                            -90.82224148666397,
                            29.793126577174736
                        ],
                        [
                            -90.82224148666397,
                            29.793126577174736
                        ],
                        [
                            -90.822707128331785,
                            29.793126577174736
                        ]
                    ]
                ]
            }
        },
        {
            "type": "Feature",
            "properties": {
                "fid": 35
            },
            "geometry": {
                "type": "Polygon",
                "coordinates": [
                    [
                        [
                            -90.8276897345294,
                            29.795196148416974
                        ],
                        [
                            -90.827269103548417,
                            29.795125171005253
                        ],
                        [
                            -90.827502787426752,
                            29.793867848509716
                        ],
                        [
                            -90.827444366457158,
                            29.793563655209987
                        ],
                        [
                            -90.82730415613014,
                            29.793391278596328
                        ],
                        [
                            -90.827631313559806,
                            29.791738475993252
                        ],
                        [
                            -90.828063628734725,
                            29.791768895919645
                        ],
                        [
                            -90.827818260662454,
                            29.793381138786284
                        ],
                        [
                            -90.828040260346881,
                            29.793543375623788
                        ],
                        [
                            -90.828040260346881,
                            29.793543375623788
                        ],
                        [
                            -90.8276897345294,
                            29.795196148416974
                        ]
                    ]
                ]
            }
        },
        {
            "type": "Feature",
            "properties": {
                "fid": 36
            },
            "geometry": {
                "type": "Polygon",
                "coordinates": [
                    [
                        [
                            -90.827128893221413,
                            29.793441977631172
                        ],
                        [
                            -90.827596260978069,
                            29.791231475858808
                        ],
                        [
                            -90.827023735476175,
                            29.791150355598962
                        ],
                        [
                            -90.826614788689099,
                            29.792985685392964
                        ],
                        [
                            -90.827128893221413,
                            29.793441977631172
                        ]
                    ]
                ]
            }
        },
        {
            "type": "Feature",
            "properties": {
                "fid": 37
            },
            "geometry": {
                "type": "Polygon",
                "coordinates": [
                    [
                        [
                            -90.826953630312673,
                            29.796027594347898
                        ],
                        [
                            -90.827152261609228,
                            29.795267125778345
                        ],
                        [
                            -90.826532999331675,
                            29.795297544632092
                        ],
                        [
                            -90.826416157392529,
                            29.795723407613629
                        ],
                        [
                            -90.825750158339304,
                            29.795622011830037
                        ],
                        [
                            -90.825726789951489,
                            29.795206288043115
                        ],
                        [
                            -90.824383107651116,
                            29.795155589902151
                        ],
                        [
                            -90.824371423457194,
                            29.795774105466897
                        ],
                        [
                            -90.826953630312673,
                            29.796027594347898
                        ]
                    ]
                ]
            }
        },
        {
            "type": "Feature",
            "properties": {
                "fid": 38
            },
            "geometry": {
                "type": "Polygon",
                "coordinates": [
                    [
                        [
                            -90.828098681316476,
                            29.791642146165351
                        ],
                        [
                            -90.828297312613032,
                            29.790790383652542
                        ],
                        [
                            -90.827818260662454,
                            29.790729543195674
                        ],
                        [
                            -90.827654681947664,
                            29.791591446218696
                        ],
                        [
                            -90.828098681316476,
                            29.791642146165351
                        ]
                    ]
                ]
            }
        }
    ]
}